name	gb number	isolate	isolation_source	lat_lon	country	lab_host	collected_by	culture_collection	host	note	Authors	Title	journal	pubmed_id
>Rhizaria_Foraminifera_Rotaliida_Globigerinacea_Pulleniatina_obliquiloculata	AB636826			0 S 162.32 E	Pacific Ocean:Site K		Ujiie,Y.				 Ujiie,Y., Asami,T., de Garidel-Thoron,T., Liu,H., Ishitani,Y. and de Vargas,C.	 Longitudinal differentiation among pelagic populations in a planktic foraminifer	 Ecol Evol 2 (7), 1725-1737 (2012)	22957176
>Rhizaria_Foraminifera_Rotaliida_Globigerinacea_Pulleniatina_obliquiloculata	AB636825			0 S 162.32 E	Pacific Ocean:Site K		Ujiie,Y.				 Ujiie,Y., Asami,T., de Garidel-Thoron,T., Liu,H., Ishitani,Y. and de Vargas,C.	 Longitudinal differentiation among pelagic populations in a planktic foraminifer	 Ecol Evol 2 (7), 1725-1737 (2012)	22957176
>Rhizaria_Foraminifera_Rotaliida_Globigerinacea_Pulleniatina_obliquiloculata	AB636824			0 S 162.32 E	Pacific Ocean:Site K		Ujiie,Y.				 Ujiie,Y., Asami,T., de Garidel-Thoron,T., Liu,H., Ishitani,Y. and de Vargas,C.	 Longitudinal differentiation among pelagic populations in a planktic foraminifer	 Ecol Evol 2 (7), 1725-1737 (2012)	22957176
>Rhizaria_Foraminifera_Rotaliida_Globigerinacea_Pulleniatina_obliquiloculata	AB636823			0 S 162.32 E	Pacific Ocean:Site K		Ujiie,Y.				 Ujiie,Y., Asami,T., de Garidel-Thoron,T., Liu,H., Ishitani,Y. and de Vargas,C.	 Longitudinal differentiation among pelagic populations in a planktic foraminifer	 Ecol Evol 2 (7), 1725-1737 (2012)	22957176
>Rhizaria_Foraminifera_Rotaliida_Globigerinacea_Pulleniatina_obliquiloculata	AB636822			0 S 162.32 E	Pacific Ocean:Site K		Ujiie,Y.				 Ujiie,Y., Asami,T., de Garidel-Thoron,T., Liu,H., Ishitani,Y. and de Vargas,C.	 Longitudinal differentiation among pelagic populations in a planktic foraminifer	 Ecol Evol 2 (7), 1725-1737 (2012)	22957176
>Rhizaria_Foraminifera_Rotaliida_Globigerinacea_Pulleniatina_obliquiloculata	AB636821			0 S 162.32 E	Pacific Ocean:Site K		Ujiie,Y.				 Ujiie,Y., Asami,T., de Garidel-Thoron,T., Liu,H., Ishitani,Y. and de Vargas,C.	 Longitudinal differentiation among pelagic populations in a planktic foraminifer	 Ecol Evol 2 (7), 1725-1737 (2012)	22957176
>Rhizaria_Foraminifera_Rotaliida_Globigerinacea_Pulleniatina_obliquiloculata	AB636820			0 S 162.32 E	Pacific Ocean:Site K		Ujiie,Y.				 Ujiie,Y., Asami,T., de Garidel-Thoron,T., Liu,H., Ishitani,Y. and de Vargas,C.	 Longitudinal differentiation among pelagic populations in a planktic foraminifer	 Ecol Evol 2 (7), 1725-1737 (2012)	22957176
>Rhizaria_Foraminifera_Rotaliida_Globigerinacea_Pulleniatina_obliquiloculata	AB636819			0 S 162.32 E	Pacific Ocean:Site K		Ujiie,Y.				 Ujiie,Y., Asami,T., de Garidel-Thoron,T., Liu,H., Ishitani,Y. and de Vargas,C.	 Longitudinal differentiation among pelagic populations in a planktic foraminifer	 Ecol Evol 2 (7), 1725-1737 (2012)	22957176
>Rhizaria_Foraminifera_Rotaliida_Globigerinacea_Pulleniatina_obliquiloculata	AB636818			0 S 162.32 E	Pacific Ocean:Site K		Ujiie,Y.				 Ujiie,Y., Asami,T., de Garidel-Thoron,T., Liu,H., Ishitani,Y. and de Vargas,C.	 Longitudinal differentiation among pelagic populations in a planktic foraminifer	 Ecol Evol 2 (7), 1725-1737 (2012)	22957176
>Rhizaria_Foraminifera_Rotaliida_Globigerinacea_Pulleniatina_obliquiloculata	AB636817			0 S 162.32 E	Pacific Ocean:Site K		Ujiie,Y.				 Ujiie,Y., Asami,T., de Garidel-Thoron,T., Liu,H., Ishitani,Y. and de Vargas,C.	 Longitudinal differentiation among pelagic populations in a planktic foraminifer	 Ecol Evol 2 (7), 1725-1737 (2012)	22957176
>Rhizaria_Foraminifera_Rotaliida_Globigerinacea_Pulleniatina_obliquiloculata	AB636816			0 S 162.32 E	Pacific Ocean:Site K		Ujiie,Y.				 Ujiie,Y., Asami,T., de Garidel-Thoron,T., Liu,H., Ishitani,Y. and de Vargas,C.	 Longitudinal differentiation among pelagic populations in a planktic foraminifer	 Ecol Evol 2 (7), 1725-1737 (2012)	22957176
>Rhizaria_Foraminifera_Rotaliida_Globigerinacea_Pulleniatina_obliquiloculata	AB636815			0 S 162.32 E	Pacific Ocean:Site K		Ujiie,Y.				 Ujiie,Y., Asami,T., de Garidel-Thoron,T., Liu,H., Ishitani,Y. and de Vargas,C.	 Longitudinal differentiation among pelagic populations in a planktic foraminifer	 Ecol Evol 2 (7), 1725-1737 (2012)	22957176
>Rhizaria_Foraminifera_Rotaliida_Globigerinacea_Pulleniatina_obliquiloculata	AB636708			0 S 162.32 E	Pacific Ocean:Site K		Ujiie,Y.				 Ujiie,Y., Asami,T., de Garidel-Thoron,T., Liu,H., Ishitani,Y. and de Vargas,C.	 Longitudinal differentiation among pelagic populations in a planktic foraminifer	 Ecol Evol 2 (7), 1725-1737 (2012)	22957176
>Rhizaria_Foraminifera_Rotaliida_Globigerinacea_Pulleniatina_obliquiloculata	AB636707			0 S 162.32 E	Pacific Ocean:Site K		Ujiie,Y.				 Ujiie,Y., Asami,T., de Garidel-Thoron,T., Liu,H., Ishitani,Y. and de Vargas,C.	 Longitudinal differentiation among pelagic populations in a planktic foraminifer	 Ecol Evol 2 (7), 1725-1737 (2012)	22957176
>Rhizaria_Foraminifera_Rotaliida_Globigerinacea_Pulleniatina_obliquiloculata	AB636706			0 S 162.32 E	Pacific Ocean:Site K		Ujiie,Y.				 Ujiie,Y., Asami,T., de Garidel-Thoron,T., Liu,H., Ishitani,Y. and de Vargas,C.	 Longitudinal differentiation among pelagic populations in a planktic foraminifer	 Ecol Evol 2 (7), 1725-1737 (2012)	22957176
>Rhizaria_Foraminifera_Rotaliida_Globigerinacea_Globigerinoides_sacculifer	JQ004111	GA2078		0.00 N 162.50 E							 Andre,A., Weiner,A., Quillevere,F., Aurahs,R., Morard,R., Douady,C.J., de Garidel-Thoron,T., Escarguel,G., de Vargas,C. and Kucera,M.	 The cryptic and the apparent reversed	 Paleobiology 39 (1), 21-39 (2012)	
>Rhizaria_Foraminifera_Rotaliida_Globigerinacea_Globigerinoides_sacculifer	JQ004108	GA1869		0.00 N 162.50 E							 Andre,A., Weiner,A., Quillevere,F., Aurahs,R., Morard,R., Douady,C.J., de Garidel-Thoron,T., Escarguel,G., de Vargas,C. and Kucera,M.	 The cryptic and the apparent reversed	 Paleobiology 39 (1), 21-39 (2012)	
>Rhizaria_Foraminifera_Rotaliida_Globigerinacea_Globorotalia_ungulata	KJ633150		South Pacific, 30-60m, Cruise GYRAFOR-A	0.00 N 162.50 E			Thibault de Garidel Thoron				 Andre,A., Quillevere,F., Morard,R., Ujiie,Y., Escarguel,G., de Vargas,C., de Garidel-Thoron,T. and Douady,C.J.	 SSU rDNA Divergence in Planktonic Foraminifera	 PLoS ONE 9 (8), E104641 (2014)	25119900
>Rhizaria_Foraminifera_Rotaliida_Globigerinacea_Globorotalia_ungulata	KJ633149		South Pacific, 30-60m, Cruise GYRAFOR-A	0.00 N 162.50 E			Thibault de Garidel Thoron				 Andre,A., Quillevere,F., Morard,R., Ujiie,Y., Escarguel,G., de Vargas,C., de Garidel-Thoron,T. and Douady,C.J.	 SSU rDNA Divergence in Planktonic Foraminifera	 PLoS ONE 9 (8), E104641 (2014)	25119900
>Rhizaria_Foraminifera_Rotaliida_Globigerinacea_Globorotalia_ungulata	KJ633148		South Pacific, 30-60m, Cruise GYRAFOR-A	0.00 N 162.50 E			Thibault de Garidel Thoron				 Andre,A., Quillevere,F., Morard,R., Ujiie,Y., Escarguel,G., de Vargas,C., de Garidel-Thoron,T. and Douady,C.J.	 SSU rDNA Divergence in Planktonic Foraminifera	 PLoS ONE 9 (8), E104641 (2014)	25119900
>Rhizaria_Foraminifera_Rotaliida_Globigerinacea_Globorotalia_ungulata	KJ633147		South Pacific, 30-60m, Cruise GYRAFOR-A	0.00 N 162.50 E			Thibault de Garidel Thoron				 Andre,A., Quillevere,F., Morard,R., Ujiie,Y., Escarguel,G., de Vargas,C., de Garidel-Thoron,T. and Douady,C.J.	 SSU rDNA Divergence in Planktonic Foraminifera	 PLoS ONE 9 (8), E104641 (2014)	25119900
>Rhizaria_Foraminifera_Rotaliida_Globigerinacea_Globorotalia_ungulata	KJ633146		South Pacific, 30-60m, Cruise GYRAFOR-A	0.00 N 162.50 E			Thibault de Garidel Thoron				 Andre,A., Quillevere,F., Morard,R., Ujiie,Y., Escarguel,G., de Vargas,C., de Garidel-Thoron,T. and Douady,C.J.	 SSU rDNA Divergence in Planktonic Foraminifera	 PLoS ONE 9 (8), E104641 (2014)	25119900
>Rhizaria_Foraminifera_Rotaliida_Globigerinacea_Globorotalia_ungulata	KJ633145		South Pacific, 30-60m, Cruise GYRAFOR-A	0.00 N 162.50 E			Thibault de Garidel Thoron				 Andre,A., Quillevere,F., Morard,R., Ujiie,Y., Escarguel,G., de Vargas,C., de Garidel-Thoron,T. and Douady,C.J.	 SSU rDNA Divergence in Planktonic Foraminifera	 PLoS ONE 9 (8), E104641 (2014)	25119900
>Rhizaria_Foraminifera_Rotaliida_Globigerinacea_Globorotalia_ungulata	KJ633144		South Pacific, 30-60m, Cruise GYRAFOR-A	0.00 N 162.50 E			Thibault de Garidel Thoron				 Andre,A., Quillevere,F., Morard,R., Ujiie,Y., Escarguel,G., de Vargas,C., de Garidel-Thoron,T. and Douady,C.J.	 SSU rDNA Divergence in Planktonic Foraminifera	 PLoS ONE 9 (8), E104641 (2014)	25119900
>Rhizaria_Foraminifera_Rotaliida_Globigerinacea_Globorotalia_ungulata	KJ633143		South Pacific, 30-60m, Cruise GYRAFOR-A	0.00 N 162.50 E			Thibault de Garidel Thoron				 Andre,A., Quillevere,F., Morard,R., Ujiie,Y., Escarguel,G., de Vargas,C., de Garidel-Thoron,T. and Douady,C.J.	 SSU rDNA Divergence in Planktonic Foraminifera	 PLoS ONE 9 (8), E104641 (2014)	25119900
>Rhizaria_Foraminifera_Rotaliida_Globigerinacea_Globorotalia_ungulata	KJ633154		South Pacific, 90-120m, Cruise GYRAFOR-A	0.00 N 162.50 E			Yurika Ujiie				 Andre,A., Quillevere,F., Morard,R., Ujiie,Y., Escarguel,G., de Vargas,C., de Garidel-Thoron,T. and Douady,C.J.	 SSU rDNA Divergence in Planktonic Foraminifera	 PLoS ONE 9 (8), E104641 (2014)	25119900
>Rhizaria_Foraminifera_Rotaliida_Globigerinacea_Globorotalia_ungulata	KJ633153		South Pacific, 90-120m, Cruise GYRAFOR-A	0.00 N 162.50 E			Yurika Ujiie				 Andre,A., Quillevere,F., Morard,R., Ujiie,Y., Escarguel,G., de Vargas,C., de Garidel-Thoron,T. and Douady,C.J.	 SSU rDNA Divergence in Planktonic Foraminifera	 PLoS ONE 9 (8), E104641 (2014)	25119900
>Rhizaria_Foraminifera_Rotaliida_Globigerinacea_Globorotalia_ungulata	KJ633152		South Pacific, 90-120m, Cruise GYRAFOR-A	0.00 N 162.50 E			Yurika Ujiie				 Andre,A., Quillevere,F., Morard,R., Ujiie,Y., Escarguel,G., de Vargas,C., de Garidel-Thoron,T. and Douady,C.J.	 SSU rDNA Divergence in Planktonic Foraminifera	 PLoS ONE 9 (8), E104641 (2014)	25119900
>Rhizaria_Foraminifera_Rotaliida_Globigerinacea_Globorotalia_ungulata	KJ633151		South Pacific, 90-120m, Cruise GYRAFOR-A	0.00 N 162.50 E			Yurika Ujiie				 Andre,A., Quillevere,F., Morard,R., Ujiie,Y., Escarguel,G., de Vargas,C., de Garidel-Thoron,T. and Douady,C.J.	 SSU rDNA Divergence in Planktonic Foraminifera	 PLoS ONE 9 (8), E104641 (2014)	25119900
>Rhizaria_Foraminifera_Rotaliida_Globigerinacea_Globigerinoides_ruber	EU012487	56		0.00 N 169.92 W						genotype: ss	 Kuroyanagi,A., Tsuchiya,M., Kawahata,H. and Kitazato,H.	 The occurrence of two genotypes of the planktonic foraminifer Globigerinoides ruber (white) and paleo-environmental implications	 Mar. Micropaleontol. 68 (3-4), 236-243 (2008)	
>Rhizaria_Foraminifera_Rotaliida_Globigerinacea_Globigerinoides_ruber	EU012486	56		0.00 N 169.92 W						genotype: ss	 Kuroyanagi,A., Tsuchiya,M., Kawahata,H. and Kitazato,H.	 The occurrence of two genotypes of the planktonic foraminifer Globigerinoides ruber (white) and paleo-environmental implications	 Mar. Micropaleontol. 68 (3-4), 236-243 (2008)	
>Rhizaria_Foraminifera_Rotaliida_Globigerinacea_Globigerinoides_ruber	EU012485	55		0.00 N 169.92 W						genotype: ss	 Kuroyanagi,A., Tsuchiya,M., Kawahata,H. and Kitazato,H.	 The occurrence of two genotypes of the planktonic foraminifer Globigerinoides ruber (white) and paleo-environmental implications	 Mar. Micropaleontol. 68 (3-4), 236-243 (2008)	
>Rhizaria_Foraminifera_Rotaliida_Globigerinacea_Globigerinoides_ruber	EU012484	55		0.00 N 169.92 W						genotype: sl	 Kuroyanagi,A., Tsuchiya,M., Kawahata,H. and Kitazato,H.	 The occurrence of two genotypes of the planktonic foraminifer Globigerinoides ruber (white) and paleo-environmental implications	 Mar. Micropaleontol. 68 (3-4), 236-243 (2008)	
>Rhizaria_Foraminifera_Rotaliida_Globigerinacea_Globigerinoides_ruber	EU012483	55		0.00 N 169.92 W						genotype: sl	 Kuroyanagi,A., Tsuchiya,M., Kawahata,H. and Kitazato,H.	 The occurrence of two genotypes of the planktonic foraminifer Globigerinoides ruber (white) and paleo-environmental implications	 Mar. Micropaleontol. 68 (3-4), 236-243 (2008)	
>Rhizaria_Foraminifera_Rotaliida_Globigerinacea_Globigerinoides_ruber	EU012482	55		0.00 N 169.92 W						genotype: sl	 Kuroyanagi,A., Tsuchiya,M., Kawahata,H. and Kitazato,H.	 The occurrence of two genotypes of the planktonic foraminifer Globigerinoides ruber (white) and paleo-environmental implications	 Mar. Micropaleontol. 68 (3-4), 236-243 (2008)	
>Rhizaria_Cercozoa_Cercomonadida_Cercomonadidae_Massisteria_sp._diva	EF405687		sediment-water interface, Guinea Abyssal Plain, -5066 m.	0.000 S 2.415 W							 Scheckenbach,F., Hausmann,K., Wylezich,C., Weitere,M. and Arndt,H.	 Genetically homogenous populations of flagellate morphospecies across several deep-sea abyssal plains of the South-East Atlantic Ocean	 Unpublished	
>Rhizaria_Cercozoa_Cercomonadida_Cercomonadidae_Massisteria_sp._diva	EF405683		sediment-water interface, Guinea Abyssal Plain, -5066 m.	0.000 S 2.415 W							 Scheckenbach,F., Hausmann,K., Wylezich,C., Weitere,M. and Arndt,H.	 Genetically homogenous populations of flagellate morphospecies across several deep-sea abyssal plains of the South-East Atlantic Ocean	 Unpublished	
>Rhizaria_Cercozoa_Cercomonadida_Cercomonadidae_Massisteria_sp._diva	EF405681		sediment-water interface, Guinea Abyssal Plain, -5066 m.	0.000 S 2.415 W							 Scheckenbach,F., Hausmann,K., Wylezich,C., Weitere,M. and Arndt,H.	 Genetically homogenous populations of flagellate morphospecies across several deep-sea abyssal plains of the South-East Atlantic Ocean	 Unpublished	
>Rhizaria_Cercozoa_Cercomonadida_Cercomonadidae_Massisteria_sp._diva	EF405682		sediment-water interface, Guinea Abyssal Plain, -5064 m.	0.000 S 2.417 W							 Scheckenbach,F., Hausmann,K., Wylezich,C., Weitere,M. and Arndt,H.	 Genetically homogenous populations of flagellate morphospecies across several deep-sea abyssal plains of the South-East Atlantic Ocean	 Unpublished	
>Rhizaria_Cercozoa_Cercomonadida_Cercomonadidae_Massisteria_sp._diva	EF405691		sediment-water interface, Guinea Abyssal Plain, -5063 m.	0.002 N 2.417 W							 Scheckenbach,F., Hausmann,K., Wylezich,C., Weitere,M. and Arndt,H.	 Genetically homogenous populations of flagellate morphospecies across several deep-sea abyssal plains of the South-East Atlantic Ocean	 Unpublished	
>Rhizaria_Cercozoa_Cercomonadida_Cercomonadidae_Massisteria_sp._diva	EF405677		sediment-water interface, Guinea Abyssal Plain, -5063 m.	0.002 N 2.417 W							 Scheckenbach,F., Hausmann,K., Wylezich,C., Weitere,M. and Arndt,H.	 Genetically homogenous populations of flagellate morphospecies across several deep-sea abyssal plains of the South-East Atlantic Ocean	 Unpublished	
>Rhizaria_Cercozoa_Cercomonadida_Cercomonadidae_Massisteria_sp._diva	EF405672		sediment-water interface, Guinea Abyssal Plain, -5063 m.	0.002 N 2.417 W							 Scheckenbach,F., Hausmann,K., Wylezich,C., Weitere,M. and Arndt,H.	 Genetically homogenous populations of flagellate morphospecies across several deep-sea abyssal plains of the South-East Atlantic Ocean	 Unpublished	
>Rhizaria_Cercozoa_Cercomonadida_Cercomonadidae_Massisteria_sp._diva	EF405674		sediment-water interface, Guinea Abyssal Plain, -5066 m.	0.002 S 2.413 W							 Scheckenbach,F., Hausmann,K., Wylezich,C., Weitere,M. and Arndt,H.	 Genetically homogenous populations of flagellate morphospecies across several deep-sea abyssal plains of the South-East Atlantic Ocean	 Unpublished	
>Rhizaria_Cercozoa_Cercomonadida_Cercomonadidae_Massisteria_sp._diva	EF405671		sediment-water interface, Guinea Abyssal Plain, -5066 m.	0.002 S 2.413 W							 Scheckenbach,F., Hausmann,K., Wylezich,C., Weitere,M. and Arndt,H.	 Genetically homogenous populations of flagellate morphospecies across several deep-sea abyssal plains of the South-East Atlantic Ocean	 Unpublished	
>Alveolata_Ciliophora_Intramacronucleata_Oligohymenophorea_Trichodina_sp._TEI-2012	JQ821348	CF6	freshwater	0.22 N 32.53 E	Uganda		A.L. Steigen, A. Nylund		Clarias gariepinus (African sharptooth catfish)		 Isaksen,T.E., Steigen,A.L., Nylund,A. and Plarre,H.	 Pathogens from gills of farmed fish in Kajansi, Uganda	 Unpublished	
>Rhizaria_Foraminifera_Rotaliida_Globigerinacea_Globorotalia_menardii	KM194052			0.4517 S 59.1892 E			Kate F. Darling				 Morard,R., Darling,K.F., Mahe,F., Christen,R., Ujiie,Y., Weiner,A.K.M., Aurahs,R., Andre,A., Wade,C.M., Seears,H.A., Kucera,M. and de Vargas,C.	 PF-R(2)	 Unpublished	
>Rhizaria_Cercozoa_Cercomonadida_Cercomonadidae_Massisteria_sp._diva	EF405689		sediment-water interface, Western Guinea Abyssal Plain, -5142 m.	0.833 N 5.583 W							 Scheckenbach,F., Hausmann,K., Wylezich,C., Weitere,M. and Arndt,H.	 Genetically homogenous populations of flagellate morphospecies across several deep-sea abyssal plains of the South-East Atlantic Ocean	 Unpublished	
>Rhizaria_Cercozoa_Cercomonadida_Cercomonadidae_Massisteria_sp._diva	EF405680		sediment-water interface, Western Guinea Abyssal Plain, -5136 m.	0.835 N 5.585 W							 Scheckenbach,F., Hausmann,K., Wylezich,C., Weitere,M. and Arndt,H.	 Genetically homogenous populations of flagellate morphospecies across several deep-sea abyssal plains of the South-East Atlantic Ocean	 Unpublished	
>Rhizaria_Foraminifera_Rotaliida_Hantkeninoidea_Hastigerinella_digitata	KM193939			10.01378 S 41.68737 E			Kate F. Darling				 Morard,R., Darling,K.F., Mahe,F., Christen,R., Ujiie,Y., Weiner,A.K.M., Aurahs,R., Andre,A., Wade,C.M., Seears,H.A., Kucera,M. and de Vargas,C.	 PF-R(2)	 Unpublished	
>Rhizaria_Foraminifera_Rotaliida_Hantkeninoidea_Hastigerinella_digitata	KM193934			10.01378 S 41.68737 E			Kate F. Darling				 Morard,R., Darling,K.F., Mahe,F., Christen,R., Ujiie,Y., Weiner,A.K.M., Aurahs,R., Andre,A., Wade,C.M., Seears,H.A., Kucera,M. and de Vargas,C.	 PF-R(2)	 Unpublished	
>Rhizaria_Foraminifera_Rotaliida_Globigerinacea_Globigerinella_siphonifera	KF769771	48		10.023 S 42.1457 E	Indian Ocean: Western Indian Ocean					genotype: IIa4	 Weiner,A.K., Weinkauf,M.F., Kurasawa,A., Darling,K.F., Kucera,M. and Grimm,G.W.	 Phylogeography of the tropical planktonic foraminifera lineage globigerinella reveals isolation inconsistent with passive dispersal by ocean currents	 PLoS ONE 9 (3), E92148 (2014)	24663038
>Rhizaria_Foraminifera_Rotaliida_Globigerinacea_Globigerinella_calida	KM194148			10.02337 S 53.04742 E			Kate F. Darling				 Morard,R., Darling,K.F., Mahe,F., Christen,R., Ujiie,Y., Weiner,A.K.M., Aurahs,R., Andre,A., Wade,C.M., Seears,H.A., Kucera,M. and de Vargas,C.	 PF-R(2)	 Unpublished	
>Rhizaria_Foraminifera_Rotaliida_Globigerinacea_Globigerinella_siphonifera	KF769566	47		10.024 S 42.1457 E	Indian Ocean: Western Indian Ocean					genotype: Ia	 Weiner,A.K., Weinkauf,M.F., Kurasawa,A., Darling,K.F., Kucera,M. and Grimm,G.W.	 Phylogeography of the tropical planktonic foraminifera lineage globigerinella reveals isolation inconsistent with passive dispersal by ocean currents	 PLoS ONE 9 (3), E92148 (2014)	24663038
>Rhizaria_Foraminifera_Rotaliida_Globigerinacea_Globigerinella_calida	KJ202251	125		10.381 S 167.125 E	Pacific Ocean					genotype: IIIc	 Weiner,A.K.M., Weinkauf,M.F.G., Kurasawa,A., Darling,K.F. and Kucera,M.	 Genetic and morphometric evidence for parallel evolution of the Globigerinella calida morphotype	 Mar. Micropaleontol. 114, 19-35 (2015)	
>Rhizaria_Foraminifera_Rotaliida_Globigerinacea_Globigerinella_calida	KJ202250	111		10.381 S 167.125 E	Pacific Ocean					genotype: IIIc	 Weiner,A.K.M., Weinkauf,M.F.G., Kurasawa,A., Darling,K.F. and Kucera,M.	 Genetic and morphometric evidence for parallel evolution of the Globigerinella calida morphotype	 Mar. Micropaleontol. 114, 19-35 (2015)	
>Rhizaria_Foraminifera_Rotaliida_Globigerinacea_Globigerinella_calida	KJ202244	99		10.381 S 167.125 E	Pacific Ocean					genotype: IIIc	 Weiner,A.K.M., Weinkauf,M.F.G., Kurasawa,A., Darling,K.F. and Kucera,M.	 Genetic and morphometric evidence for parallel evolution of the Globigerinella calida morphotype	 Mar. Micropaleontol. 114, 19-35 (2015)	
>Rhizaria_Foraminifera_Rotaliida_Globigerinacea_Globigerinella_calida	KJ202243	90		10.381 S 167.125 E	Pacific Ocean					genotype: IIIb	 Weiner,A.K.M., Weinkauf,M.F.G., Kurasawa,A., Darling,K.F. and Kucera,M.	 Genetic and morphometric evidence for parallel evolution of the Globigerinella calida morphotype	 Mar. Micropaleontol. 114, 19-35 (2015)	
>Rhizaria_Foraminifera_Rotaliida_Globigerinacea_Globigerinella_calida	KJ202242	87		10.381 S 167.125 E	Pacific Ocean					genotype: IIIb	 Weiner,A.K.M., Weinkauf,M.F.G., Kurasawa,A., Darling,K.F. and Kucera,M.	 Genetic and morphometric evidence for parallel evolution of the Globigerinella calida morphotype	 Mar. Micropaleontol. 114, 19-35 (2015)	
>Rhizaria_Foraminifera_Rotaliida_Globigerinacea_Globigerinella_calida	KJ202241	91		10.381 S 167.125 E	Pacific Ocean					genotype: IIIb	 Weiner,A.K.M., Weinkauf,M.F.G., Kurasawa,A., Darling,K.F. and Kucera,M.	 Genetic and morphometric evidence for parallel evolution of the Globigerinella calida morphotype	 Mar. Micropaleontol. 114, 19-35 (2015)	
>Rhizaria_Foraminifera_Rotaliida_Globigerinacea_Globigerinella_siphonifera	KJ202255	112		10.381 S 167.125 E	Pacific Ocean					genotype: Ib	 Weiner,A.K.M., Weinkauf,M.F.G., Kurasawa,A., Darling,K.F. and Kucera,M.	 Genetic and morphometric evidence for parallel evolution of the Globigerinella calida morphotype	 Mar. Micropaleontol. 114, 19-35 (2015)	
>Rhizaria_Foraminifera_Rotaliida_Globigerinacea_Globigerinella_siphonifera	KJ202252	98		10.381 S 167.125 E	Pacific Ocean					genotype: Ib	 Weiner,A.K.M., Weinkauf,M.F.G., Kurasawa,A., Darling,K.F. and Kucera,M.	 Genetic and morphometric evidence for parallel evolution of the Globigerinella calida morphotype	 Mar. Micropaleontol. 114, 19-35 (2015)	
>Rhizaria_Foraminifera_Rotaliida_Globigerinacea_Globigerinella_siphonifera	KJ202248	137		10.381 S 167.125 E	Pacific Ocean					genotype: IIa4	 Weiner,A.K.M., Weinkauf,M.F.G., Kurasawa,A., Darling,K.F. and Kucera,M.	 Genetic and morphometric evidence for parallel evolution of the Globigerinella calida morphotype	 Mar. Micropaleontol. 114, 19-35 (2015)	
>Rhizaria_Foraminifera_Rotaliida_Globigerinacea_Globigerinella_siphonifera	KJ202247	108		10.381 S 167.125 E	Pacific Ocean					genotype: IIa1	 Weiner,A.K.M., Weinkauf,M.F.G., Kurasawa,A., Darling,K.F. and Kucera,M.	 Genetic and morphometric evidence for parallel evolution of the Globigerinella calida morphotype	 Mar. Micropaleontol. 114, 19-35 (2015)	
>Rhizaria_Foraminifera_Rotaliida_Globigerinacea_Globigerinella_siphonifera	KJ202245	158		10.381 S 167.125 E	Pacific Ocean					genotype: IIa1	 Weiner,A.K.M., Weinkauf,M.F.G., Kurasawa,A., Darling,K.F. and Kucera,M.	 Genetic and morphometric evidence for parallel evolution of the Globigerinella calida morphotype	 Mar. Micropaleontol. 114, 19-35 (2015)	
>Rhizaria_Foraminifera_Rotaliida_Globigerinacea_Globigerinella_siphonifera	KJ202234	94		10.381 S 167.125 E	Pacific Ocean					genotype: Ib	 Weiner,A.K.M., Weinkauf,M.F.G., Kurasawa,A., Darling,K.F. and Kucera,M.	 Genetic and morphometric evidence for parallel evolution of the Globigerinella calida morphotype	 Mar. Micropaleontol. 114, 19-35 (2015)	
>Rhizaria_Foraminifera_Rotaliida_Globigerinacea_Globigerinella_siphonifera	KJ202232	92		10.381 S 167.125 E	Pacific Ocean					genotype: Ib	 Weiner,A.K.M., Weinkauf,M.F.G., Kurasawa,A., Darling,K.F. and Kucera,M.	 Genetic and morphometric evidence for parallel evolution of the Globigerinella calida morphotype	 Mar. Micropaleontol. 114, 19-35 (2015)	
>Rhizaria_Foraminifera_Rotaliida_Globigerinacea_Globigerinella_siphonifera	KJ202226	126		10.381 S 167.125 E	Pacific Ocean					genotype: IIa5	 Weiner,A.K.M., Weinkauf,M.F.G., Kurasawa,A., Darling,K.F. and Kucera,M.	 Genetic and morphometric evidence for parallel evolution of the Globigerinella calida morphotype	 Mar. Micropaleontol. 114, 19-35 (2015)	
>Rhizaria_Foraminifera_Rotaliida_Globigerinacea_Globigerinella_siphonifera	KJ202216	114		10.381 S 167.125 E	Pacific Ocean					genotype: IIa1	 Weiner,A.K.M., Weinkauf,M.F.G., Kurasawa,A., Darling,K.F. and Kucera,M.	 Genetic and morphometric evidence for parallel evolution of the Globigerinella calida morphotype	 Mar. Micropaleontol. 114, 19-35 (2015)	
>Rhizaria_Foraminifera_Rotaliida_Globigerinacea_Globigerinella_siphonifera	KJ202215	106		10.381 S 167.125 E	Pacific Ocean					genotype: IIa1	 Weiner,A.K.M., Weinkauf,M.F.G., Kurasawa,A., Darling,K.F. and Kucera,M.	 Genetic and morphometric evidence for parallel evolution of the Globigerinella calida morphotype	 Mar. Micropaleontol. 114, 19-35 (2015)	
>Rhizaria_Foraminifera_Rotaliida_Globigerinacea_Globigerinella_siphonifera	KJ202214	157		10.381 S 167.125 E	Pacific Ocean					genotype: IIa1	 Weiner,A.K.M., Weinkauf,M.F.G., Kurasawa,A., Darling,K.F. and Kucera,M.	 Genetic and morphometric evidence for parallel evolution of the Globigerinella calida morphotype	 Mar. Micropaleontol. 114, 19-35 (2015)	
>Rhizaria_Foraminifera_Rotaliida_Globigerinacea_Globigerinella_siphonifera	KJ202213	93		10.381 S 167.125 E	Pacific Ocean					genotype: IIa1	 Weiner,A.K.M., Weinkauf,M.F.G., Kurasawa,A., Darling,K.F. and Kucera,M.	 Genetic and morphometric evidence for parallel evolution of the Globigerinella calida morphotype	 Mar. Micropaleontol. 114, 19-35 (2015)	
>Rhizaria_Foraminifera_Rotaliida_Globigerinacea_Globigerinoides_conglobatus	KM194263		20-40 m	10.381 S 167.125 E			Agnes Weiner				 Morard,R., Darling,K.F., Mahe,F., Christen,R., Ujiie,Y., Weiner,A.K.M., Aurahs,R., Andre,A., Wade,C.M., Seears,H.A., Kucera,M. and de Vargas,C.	 PF-R(2)	 Unpublished	
>Rhizaria_Foraminifera_Rotaliida_Globigerinacea_Globigerinoides_conglobatus	KM194262		20-40 m	10.381 S 167.125 E			Agnes Weiner				 Morard,R., Darling,K.F., Mahe,F., Christen,R., Ujiie,Y., Weiner,A.K.M., Aurahs,R., Andre,A., Wade,C.M., Seears,H.A., Kucera,M. and de Vargas,C.	 PF-R(2)	 Unpublished	
>Rhizaria_Foraminifera_Rotaliida_Globigerinacea_Globigerinoides_conglobatus	KM194269		40-60 m	10.381 S 167.125 E			Agnes Weiner				 Morard,R., Darling,K.F., Mahe,F., Christen,R., Ujiie,Y., Weiner,A.K.M., Aurahs,R., Andre,A., Wade,C.M., Seears,H.A., Kucera,M. and de Vargas,C.	 PF-R(2)	 Unpublished	
>Rhizaria_Foraminifera_Rotaliida_Globigerinacea_Globigerinoides_conglobatus	KM194286		80-100 m	10.381 S 167.125 E			Agnes Weiner				 Morard,R., Darling,K.F., Mahe,F., Christen,R., Ujiie,Y., Weiner,A.K.M., Aurahs,R., Andre,A., Wade,C.M., Seears,H.A., Kucera,M. and de Vargas,C.	 PF-R(2)	 Unpublished	
>Rhizaria_Foraminifera_Rotaliida_Globigerinacea_Neogloboquadrina_dutertrei	KM194258		0-20 m	10.381 S 167.125 E			Agnes Weiner				 Morard,R., Darling,K.F., Mahe,F., Christen,R., Ujiie,Y., Weiner,A.K.M., Aurahs,R., Andre,A., Wade,C.M., Seears,H.A., Kucera,M. and de Vargas,C.	 PF-R(2)	 Unpublished	
>Rhizaria_Foraminifera_Rotaliida_Globigerinacea_Neogloboquadrina_dutertrei	KM194257		0-20 m	10.381 S 167.125 E			Agnes Weiner				 Morard,R., Darling,K.F., Mahe,F., Christen,R., Ujiie,Y., Weiner,A.K.M., Aurahs,R., Andre,A., Wade,C.M., Seears,H.A., Kucera,M. and de Vargas,C.	 PF-R(2)	 Unpublished	
>Rhizaria_Foraminifera_Rotaliida_Globigerinacea_Neogloboquadrina_dutertrei	KM194256		0-20 m	10.381 S 167.125 E			Agnes Weiner				 Morard,R., Darling,K.F., Mahe,F., Christen,R., Ujiie,Y., Weiner,A.K.M., Aurahs,R., Andre,A., Wade,C.M., Seears,H.A., Kucera,M. and de Vargas,C.	 PF-R(2)	 Unpublished	
>Rhizaria_Foraminifera_Rotaliida_Globigerinacea_Neogloboquadrina_dutertrei	KM194268		20-40 m	10.381 S 167.125 E			Agnes Weiner				 Morard,R., Darling,K.F., Mahe,F., Christen,R., Ujiie,Y., Weiner,A.K.M., Aurahs,R., Andre,A., Wade,C.M., Seears,H.A., Kucera,M. and de Vargas,C.	 PF-R(2)	 Unpublished	
>Rhizaria_Foraminifera_Rotaliida_Globigerinacea_Neogloboquadrina_dutertrei	KM194267		20-40 m	10.381 S 167.125 E			Agnes Weiner				 Morard,R., Darling,K.F., Mahe,F., Christen,R., Ujiie,Y., Weiner,A.K.M., Aurahs,R., Andre,A., Wade,C.M., Seears,H.A., Kucera,M. and de Vargas,C.	 PF-R(2)	 Unpublished	
>Rhizaria_Foraminifera_Rotaliida_Globigerinacea_Neogloboquadrina_dutertrei	KM194266		20-40 m	10.381 S 167.125 E			Agnes Weiner				 Morard,R., Darling,K.F., Mahe,F., Christen,R., Ujiie,Y., Weiner,A.K.M., Aurahs,R., Andre,A., Wade,C.M., Seears,H.A., Kucera,M. and de Vargas,C.	 PF-R(2)	 Unpublished	
>Rhizaria_Foraminifera_Rotaliida_Globigerinacea_Neogloboquadrina_dutertrei	KM194265		20-40 m	10.381 S 167.125 E			Agnes Weiner				 Morard,R., Darling,K.F., Mahe,F., Christen,R., Ujiie,Y., Weiner,A.K.M., Aurahs,R., Andre,A., Wade,C.M., Seears,H.A., Kucera,M. and de Vargas,C.	 PF-R(2)	 Unpublished	
>Rhizaria_Foraminifera_Rotaliida_Globigerinacea_Neogloboquadrina_dutertrei	KM194264		20-40 m	10.381 S 167.125 E			Agnes Weiner				 Morard,R., Darling,K.F., Mahe,F., Christen,R., Ujiie,Y., Weiner,A.K.M., Aurahs,R., Andre,A., Wade,C.M., Seears,H.A., Kucera,M. and de Vargas,C.	 PF-R(2)	 Unpublished	
>Rhizaria_Foraminifera_Rotaliida_Globigerinacea_Neogloboquadrina_dutertrei	KM194281		40-60 m	10.381 S 167.125 E			Agnes Weiner				 Morard,R., Darling,K.F., Mahe,F., Christen,R., Ujiie,Y., Weiner,A.K.M., Aurahs,R., Andre,A., Wade,C.M., Seears,H.A., Kucera,M. and de Vargas,C.	 PF-R(2)	 Unpublished	
>Rhizaria_Foraminifera_Rotaliida_Globigerinacea_Neogloboquadrina_dutertrei	KM194279		40-60 m	10.381 S 167.125 E			Agnes Weiner				 Morard,R., Darling,K.F., Mahe,F., Christen,R., Ujiie,Y., Weiner,A.K.M., Aurahs,R., Andre,A., Wade,C.M., Seears,H.A., Kucera,M. and de Vargas,C.	 PF-R(2)	 Unpublished	
>Rhizaria_Foraminifera_Rotaliida_Globigerinacea_Neogloboquadrina_dutertrei	KM194278		40-60 m	10.381 S 167.125 E			Agnes Weiner				 Morard,R., Darling,K.F., Mahe,F., Christen,R., Ujiie,Y., Weiner,A.K.M., Aurahs,R., Andre,A., Wade,C.M., Seears,H.A., Kucera,M. and de Vargas,C.	 PF-R(2)	 Unpublished	
>Rhizaria_Foraminifera_Rotaliida_Globigerinacea_Neogloboquadrina_dutertrei	KM194277		40-60 m	10.381 S 167.125 E			Agnes Weiner				 Morard,R., Darling,K.F., Mahe,F., Christen,R., Ujiie,Y., Weiner,A.K.M., Aurahs,R., Andre,A., Wade,C.M., Seears,H.A., Kucera,M. and de Vargas,C.	 PF-R(2)	 Unpublished	
>Rhizaria_Foraminifera_Rotaliida_Globigerinacea_Neogloboquadrina_dutertrei	KM194276		40-60 m	10.381 S 167.125 E			Agnes Weiner				 Morard,R., Darling,K.F., Mahe,F., Christen,R., Ujiie,Y., Weiner,A.K.M., Aurahs,R., Andre,A., Wade,C.M., Seears,H.A., Kucera,M. and de Vargas,C.	 PF-R(2)	 Unpublished	
>Rhizaria_Foraminifera_Rotaliida_Globigerinacea_Neogloboquadrina_dutertrei	KM194275		40-60 m	10.381 S 167.125 E			Agnes Weiner				 Morard,R., Darling,K.F., Mahe,F., Christen,R., Ujiie,Y., Weiner,A.K.M., Aurahs,R., Andre,A., Wade,C.M., Seears,H.A., Kucera,M. and de Vargas,C.	 PF-R(2)	 Unpublished	
>Rhizaria_Foraminifera_Rotaliida_Globigerinacea_Neogloboquadrina_dutertrei	KM194274		40-60 m	10.381 S 167.125 E			Agnes Weiner				 Morard,R., Darling,K.F., Mahe,F., Christen,R., Ujiie,Y., Weiner,A.K.M., Aurahs,R., Andre,A., Wade,C.M., Seears,H.A., Kucera,M. and de Vargas,C.	 PF-R(2)	 Unpublished	
>Rhizaria_Foraminifera_Rotaliida_Globigerinacea_Neogloboquadrina_dutertrei	KM194273		40-60 m	10.381 S 167.125 E			Agnes Weiner				 Morard,R., Darling,K.F., Mahe,F., Christen,R., Ujiie,Y., Weiner,A.K.M., Aurahs,R., Andre,A., Wade,C.M., Seears,H.A., Kucera,M. and de Vargas,C.	 PF-R(2)	 Unpublished	
>Rhizaria_Foraminifera_Rotaliida_Globigerinacea_Neogloboquadrina_dutertrei	KM194272		40-60 m	10.381 S 167.125 E			Agnes Weiner				 Morard,R., Darling,K.F., Mahe,F., Christen,R., Ujiie,Y., Weiner,A.K.M., Aurahs,R., Andre,A., Wade,C.M., Seears,H.A., Kucera,M. and de Vargas,C.	 PF-R(2)	 Unpublished	
>Rhizaria_Foraminifera_Rotaliida_Globigerinacea_Neogloboquadrina_dutertrei	KM194271		40-60 m	10.381 S 167.125 E			Agnes Weiner				 Morard,R., Darling,K.F., Mahe,F., Christen,R., Ujiie,Y., Weiner,A.K.M., Aurahs,R., Andre,A., Wade,C.M., Seears,H.A., Kucera,M. and de Vargas,C.	 PF-R(2)	 Unpublished	
>Rhizaria_Foraminifera_Rotaliida_Globigerinacea_Neogloboquadrina_dutertrei	KM194270		40-60 m	10.381 S 167.125 E			Agnes Weiner				 Morard,R., Darling,K.F., Mahe,F., Christen,R., Ujiie,Y., Weiner,A.K.M., Aurahs,R., Andre,A., Wade,C.M., Seears,H.A., Kucera,M. and de Vargas,C.	 PF-R(2)	 Unpublished	
>Rhizaria_Foraminifera_Rotaliida_Globigerinacea_Neogloboquadrina_dutertrei	KM194285		60-80 m	10.381 S 167.125 E			Agnes Weiner				 Morard,R., Darling,K.F., Mahe,F., Christen,R., Ujiie,Y., Weiner,A.K.M., Aurahs,R., Andre,A., Wade,C.M., Seears,H.A., Kucera,M. and de Vargas,C.	 PF-R(2)	 Unpublished	
>Rhizaria_Foraminifera_Rotaliida_Globigerinacea_Neogloboquadrina_dutertrei	KM194284		60-80 m	10.381 S 167.125 E			Agnes Weiner				 Morard,R., Darling,K.F., Mahe,F., Christen,R., Ujiie,Y., Weiner,A.K.M., Aurahs,R., Andre,A., Wade,C.M., Seears,H.A., Kucera,M. and de Vargas,C.	 PF-R(2)	 Unpublished	
>Rhizaria_Foraminifera_Rotaliida_Globigerinacea_Neogloboquadrina_dutertrei	KM194283		60-80 m	10.381 S 167.125 E			Agnes Weiner				 Morard,R., Darling,K.F., Mahe,F., Christen,R., Ujiie,Y., Weiner,A.K.M., Aurahs,R., Andre,A., Wade,C.M., Seears,H.A., Kucera,M. and de Vargas,C.	 PF-R(2)	 Unpublished	
>Rhizaria_Foraminifera_Rotaliida_Globigerinacea_Neogloboquadrina_dutertrei	KM194282		60-80 m	10.381 S 167.125 E			Agnes Weiner				 Morard,R., Darling,K.F., Mahe,F., Christen,R., Ujiie,Y., Weiner,A.K.M., Aurahs,R., Andre,A., Wade,C.M., Seears,H.A., Kucera,M. and de Vargas,C.	 PF-R(2)	 Unpublished	
>Rhizaria_Polycystinea_Collodaria_Collophidiidae_Collophidium_cf._serpentinum_TB-2015	KR058217	Ind20	photic zone of the sea	12.80 S 42.2 E	Indian Ocean						 Biard,T., Pillet,L., Decelle,J., Poirier,C., Suzuki,N. and Not,F.	 Towards an Integrative Morpho-molecular Classification of the Collodaria (Polycystinea, Radiolaria)	 Protist 166 (3), 374-388 (2015)	26092634>Alveolata_Apicomplexa_Conoidasida_Coccidia_Cryptosporidium_canis	KC445654		intestine	22.32 N 99.55 E	China: Yunnan, Menglian				Aselliscus stoliczkanus		 Wang,W., Cao,L. and Liu,Q.	 Detection of Cryptosporidium and Identification to species by Nested PCR	 Unpublished	>Alveolata_Apicomplexa_Conoidasida_Coccidia_Cryptosporidium_canis	KC445656		stool	22.32 N 99.55 E	China: Yunnan, Menglian				bat		 Wang,W., Cao,L. and Liu,Q.	 Detection of Cryptosporidium and Identification to species by Nested PCR	 Unpublished	>Alveolata_Apicomplexa_Conoidasida_Coccidia_Cryptosporidium_canis	KC445650		intestine	22.32 N 99.55 E	China: Yunnan, Menglian				Rhinolophus sinicus		 Wang,W., Cao,L. and Liu,Q.	 Detection of Cryptosporidium and Identification to species by Nested PCR	 Unpublished	>Alveolata_Apicomplexa_Conoidasida_Coccidia_Cryptosporidium_sp._bat_stool_'Yunnan'	KC445657		stool	22.32 N 99.55 E	China: Yunnan, Menglian				bat		 Wang,W., Cao,L. and Liu,Q.	 Detection of Cryptosporidium and Identification to species by Nested PCR	 Unpublished	>Alveolata_Apicomplexa_Conoidasida_Coccidia_Cryptosporidium_sp._ex_Rhinolophus_sinicus_'Menglian'	KC445653		intestine	22.32 N 99.55 E	China: Yunnan, Menglian				Rhinolophus sinicus		 Wang,W., Cao,L. and Liu,Q.	 Detection of Cryptosporidium and Identification to species by Nested PCR	 Unpublished	
>Alveolata_Apicomplexa_Conoidasida_Coccidia_uncultured_Eimeriidae	EF024050		trembling aspen rhizosphere under ambient CO2 conditions								 Lesaulnier,C., Papamichail,D., McCorkle,S., Ollivier,B., Skiena,S., Taghavi,S., Zak,D. and van der Lelie,D.	 Elevated atmospheric CO2 affects soil microbial diversity associated with trembling aspen	 Environ. Microbiol. 10 (4), 926-941 (2008)	18218029>Alveolata_Ciliophora_Intramacronucleata_Litostomatea_Polycostidae_environmental_sample	EF024484		trembling aspen rhizosphere under elevated CO2 conditions								 Lesaulnier,C., Papamichail,D., McCorkle,S., Ollivier,B., Skiena,S., Taghavi,S., Zak,D. and van der Lelie,D.	 Elevated atmospheric CO2 affects soil microbial diversity associated with trembling aspen	 Environ. Microbiol. 10 (4), 926-941 (2008)	18218029